API VERSION: 1.2
API SOURCE: NASA/JPL Horizons API



*******************************************************************************
Ephemeris / API_USER Mon Oct 30 14:04:35 2023 Pasadena, USA      / Horizons    
*******************************************************************************
Target body name: Moon (301)                      {source: DE441}
Center body name: Earth (399)                     {source: DE441}
Center-site name: GEOCENTRIC
*******************************************************************************
Start time      : A.D. 2041-Jan-01 00:00:00.0000 UT      
Stop  time      : A.D. 2042-Jan-01 00:00:00.0000 UT      
Step-size       : 60 minutes
*******************************************************************************
Target pole/equ : MOON_ME                         {East-longitude positive}
Target radii    : 1737.4, 1737.4, 1737.4 km       {Equator_a, b, pole_c}       
Center geodetic : 0.0, 0.0, -6378.137             {E-lon(deg),Lat(deg),Alt(km)}
Center cylindric: 0.0, 0.0, 0.0                   {E-lon(deg),Dxy(km),Dz(km)}
Center pole/equ : ITRF93                          {East-longitude positive}
Center radii    : 6378.137, 6378.137, 6356.752 km {Equator_a, b, pole_c}       
Target primary  : Earth
Vis. interferer : MOON (R_eq= 1737.400) km        {source: DE441}
Rel. light bend : Sun                             {source: DE441}
Rel. lght bnd GM: 1.3271E+11 km^3/s^2                                          
Atmos refraction: NO (AIRLESS)
RA format       : HMS
Time format     : CAL 
Calendar mode   : Mixed Julian/Gregorian
EOP file        : eop.231027.p240119                                           
EOP coverage    : DATA-BASED 1962-JAN-20 TO 2023-OCT-27. PREDICTS-> 2024-JAN-18
Units conversion: 1 au= 149597870.700 km, c= 299792.458 km/s, 1 day= 86400.0 s 
Table cut-offs 1: Elevation (-90.0deg=NO ),Airmass (>38.000=NO), Daylight (NO )
Table cut-offs 2: Solar elongation (  0.0,180.0=NO ),Local Hour Angle( 0.0=NO )
Table cut-offs 3: RA/DEC angular rate (     0.0=NO )                           
Table format    : Comma Separated Values (spreadsheet)
***********************************************************************************************************************************************
 Date__(UT)__HR:MN, , , R.A._(ICRF), DEC__(ICRF),      Illu%,  ObsSub-LON, ObsSub-LAT,  SunSub-LON, SunSub-LAT,    NP.ang,  NP.dist,     S-T-O,
***********************************************************************************************************************************************
$$SOE
 2041-May-27 15:00, , , 02 20 19.64, +13 15 44.5,    6.26949,    4.340146,   0.828094,  213.306032,   0.617736,  342.6671,  949.087,  150.9939,
 2041-May-27 16:00, , , 02 22 27.93, +13 29 43.3,    6.04730,    4.357129,   0.761125,  212.795912,   0.618855,  342.8008,  948.796,  151.5235,
 2041-May-27 17:00, , , 02 24 36.40, +13 43 37.4,    5.82901,    4.373762,   0.694121,  212.285785,   0.619973,  342.9362,  948.500,  152.0527,
 2041-May-27 18:00, , , 02 26 45.04, +13 57 26.9,    5.61465,    4.390044,   0.627087,  211.775652,   0.621088,  343.0732,  948.202,  152.5815,
 2041-May-27 19:00, , , 02 28 53.87, +14 11 11.7,    5.40423,    4.405973,   0.560033,  211.265512,   0.622201,  343.2117,  947.900,  153.1099,
 2041-May-27 20:00, , , 02 31 02.87, +14 24 51.6,    5.19775,    4.421548,   0.492963,  210.755367,   0.623312,  343.3519,  947.594,  153.6379,
 2041-May-27 21:00, , , 02 33 12.06, +14 38 26.7,    4.99524,    4.436768,   0.425886,  210.245215,   0.624421,  343.4936,  947.286,  154.1655,
 2041-May-27 22:00, , , 02 35 21.44, +14 51 56.8,    4.79669,    4.451632,   0.358808,  209.735057,   0.625528,  343.6370,  946.974,  154.6927,
 2041-May-27 23:00, , , 02 37 31.01, +15 05 21.9,    4.60213,    4.466137,   0.291736,  209.224894,   0.626633,  343.7819,  946.658,  155.2195,
 2041-May-28 00:00, , , 02 39 40.77, +15 18 41.8,    4.41156,    4.480284,   0.224677,  208.714724,   0.627735,  343.9283,  946.339,  155.7458,
 2041-May-28 01:00, , , 02 41 50.72, +15 31 56.5,    4.22499,    4.494071,   0.157639,  208.204549,   0.628836,  344.0764,  946.017,  156.2717,
 2041-May-28 02:00, , , 02 44 00.86, +15 45 06.0,    4.04243,    4.507496,   0.090627,  207.694369,   0.629934,  344.2260,  945.692,  156.7972,
 2041-May-28 03:00, , , 02 46 11.21, +15 58 10.1,    3.86388,    4.520559,   0.023648,  207.184182,   0.631030,  344.3771,  945.363,  157.3222,
 2041-May-28 04:00, , , 02 48 21.75, +16 11 08.8,    3.68937,    4.533257,  -0.043289,  206.673991,   0.632124,  344.5298, -945.032,  157.8467,
 2041-May-28 05:00, , , 02 50 32.50, +16 24 02.1,    3.51889,    4.545591,  -0.110180,  206.163794,   0.633216,  344.6840, -944.696,  158.3708,
 2041-May-28 06:00, , , 02 52 43.44, +16 36 49.7,    3.35245,    4.557558,  -0.177016,  205.653592,   0.634305,  344.8398, -944.358,  158.8943,
 2041-May-28 07:00, , , 02 54 54.59, +16 49 31.7,    3.19006,    4.569158,  -0.243792,  205.143385,   0.635393,  344.9971, -944.017,  159.4174,
 2041-May-28 08:00, , , 02 57 05.94, +17 02 07.9,    3.03172,    4.580389,  -0.310500,  204.633173,   0.636478,  345.1559, -943.672,  159.9400,
 2041-May-28 09:00, , , 02 59 17.51, +17 14 38.4,    2.87744,    4.591250,  -0.377134,  204.122956,   0.637560,  345.3162, -943.325,  160.4620,
 2041-May-28 10:00, , , 03 01 29.27, +17 27 03.0,    2.72723,    4.601741,  -0.443687,  203.612734,   0.638641,  345.4780, -942.974,  160.9835,
 2041-May-28 11:00, , , 03 03 41.25, +17 39 21.6,    2.58109,    4.611859,  -0.510153,  203.102507,   0.639719,  345.6413, -942.620,  161.5045,
 2041-May-28 12:00, , , 03 05 53.43, +17 51 34.3,    2.43903,    4.621604,  -0.576525,  202.592276,   0.640795,  345.8061, -942.263,  162.0249,
 2041-May-28 13:00, , , 03 08 05.83, +18 03 40.8,    2.30104,    4.630975,  -0.642796,  202.082041,   0.641868,  345.9723, -941.903,  162.5447,
 2041-May-28 14:00, , , 03 10 18.44, +18 15 41.2,    2.16713,    4.639970,  -0.708961,  201.571801,   0.642939,  346.1400, -941.540,  163.0638,
 2041-May-28 15:00, , , 03 12 31.26, +18 27 35.4,    2.03731,    4.648589,  -0.775012,  201.061557,   0.644008,  346.3092, -941.175,  163.5824,
 2041-May-28 16:00, , , 03 14 44.29, +18 39 23.3,    1.91158,    4.656830,  -0.840943,  200.551309,   0.645074,  346.4798, -940.806,  164.1003,
 2041-May-28 17:00, , , 03 16 57.53, +18 51 04.7,    1.78994,    4.664692,  -0.906747,  200.041057,   0.646138,  346.6518, -940.434,  164.6174,
 2041-May-28 18:00, , , 03 19 10.98, +19 02 39.8,    1.67238,    4.672174,  -0.972419,  199.530801,   0.647199,  346.8253, -940.060,  165.1339,
 2041-May-28 19:00, , , 03 21 24.65, +19 14 08.3,    1.55892,    4.679275,  -1.037952,  199.020541,   0.648258,  347.0002, -939.683,  165.6496,
 2041-May-28 20:00, , , 03 23 38.54, +19 25 30.3,    1.44955,    4.685995,  -1.103340,  198.510277,   0.649315,  347.1765, -939.303,  166.1645,
 2041-May-28 21:00, , , 03 25 52.63, +19 36 45.6,    1.34428,    4.692331,  -1.168576,  198.000010,   0.650369,  347.3541, -938.920,  166.6785,
 2041-May-28 22:00, , , 03 28 06.94, +19 47 54.2,    1.24309,    4.698284,  -1.233654,  197.489739,   0.651420,  347.5332, -938.535,  167.1916,
 2041-May-28 23:00, , , 03 30 21.46, +19 58 56.0,    1.14600,    4.703851,  -1.298568,  196.979465,   0.652469,  347.7136, -938.147,  167.7038,
 2041-May-29 00:00, , , 03 32 36.19, +20 09 50.9,    1.05300,    4.709032,  -1.363313,  196.469188,   0.653516,  347.8954, -937.756,  168.2149,
 2041-May-29 01:00, , , 03 34 51.14, +20 20 39.0,    0.96409,    4.713827,  -1.427881,  195.958907,   0.654560,  348.0785, -937.363,  168.7248,
 2041-May-29 02:00, , , 03 37 06.29, +20 31 20.0,    0.87927,    4.718233,  -1.492267,  195.448624,   0.655602,  348.2629, -936.968,  169.2335,
 2041-May-29 03:00, , , 03 39 21.66, +20 41 54.0,    0.79853,    4.722250,  -1.556465,  194.938337,   0.656640,  348.4487, -936.569,  169.7409,
 2041-May-29 04:00, , , 03 41 37.23, +20 52 20.9,    0.72187,    4.725878,  -1.620469,  194.428048,   0.657677,  348.6357, -936.169,  170.2467,
 2041-May-29 05:00, , , 03 43 53.02, +21 02 40.7,    0.64929,    4.729115,  -1.684273,  193.917755,   0.658711,  348.8241, -935.766,  170.7508,
 2041-May-29 06:00, , , 03 46 09.01, +21 12 53.1,    0.58079,    4.731960,  -1.747872,  193.407461,   0.659742,  349.0137, -935.361,  171.2531,
 2041-May-29 07:00, , , 03 48 25.21, +21 22 58.3,    0.51636,    4.734412,  -1.811258,  192.897163,   0.660770,  349.2045, -934.953,  171.7531,
 2041-May-29 08:00, , , 03 50 41.61, +21 32 56.1,    0.45599,    4.736471,  -1.874428,  192.386863,   0.661796,  349.3966, -934.543,  172.2506,
 2041-May-29 09:00, , , 03 52 58.22, +21 42 46.5,    0.39968,    4.738136,  -1.937374,  191.876561,   0.662819,  349.5900, -934.131,  172.7452,
 2041-May-29 10:00, , , 03 55 15.02, +21 52 29.5,    0.34743,    4.739405,  -2.000091,  191.366257,   0.663840,  349.7845, -933.717,  173.2362,
 2041-May-29 11:00, , , 03 57 32.03, +22 02 04.8,    0.29923,    4.740279,  -2.062574,  190.855950,   0.664858,  349.9803, -933.301,  173.7231,
 2041-May-29 12:00, , , 03 59 49.24, +22 11 32.6,    0.25507,    4.740756,  -2.124818,  190.345642,   0.665873,  350.1772, -932.883,  174.2047,
 2041-May-29 13:00, , , 04 02 06.64, +22 20 52.7,    0.21495,    4.740835,  -2.186815,  189.835331,   0.666886,  350.3753, -932.462,  174.6799,
 2041-May-29 14:00, , , 04 04 24.24, +22 30 05.1,    0.17887,    4.740515,  -2.248562,  189.325019,   0.667896,  350.5745, -932.040,  175.1469,
 2041-May-29 15:00, , , 04 06 42.03, +22 39 09.8,    0.14680,    4.739797,  -2.310053,  188.814705,   0.668903,  350.7748, -931.616,  175.6033,
 2041-May-29 16:00, , , 04 09 00.00, +22 48 06.6,    0.11875,    4.738678,  -2.371282,  188.304389,   0.669907,  350.9763, -931.190,  176.0454,
 2041-May-29 17:00, , , 04 11 18.17, +22 56 55.6,    0.09470,    4.737159,  -2.432244,  187.794072,   0.670909,  351.1788, -930.762,  176.4683,
